ESTCUBE 1               
1 39161U 13021C   21347.19552190  .00000285  00000+0  52490-4 0  9994
2 39161  97.9279  64.1732 0008438 304.7125  55.3287 14.72601166462054
FENGYUN 3C              
1 39260U 13052A   21347.55981003  .00000014  00000+0  27820-4 0  9996
2 39260  98.4778  19.8765 0012314  90.1524 270.1062 14.15889041425610
CASSIOPE                
1 39265U 13055A   21347.59186039  .00008317  00000+0  22669-3 0  9993
2 39265  80.9658 103.7401 0640660 147.2190 217.0506 14.34386311425652
ZACUBE-1 (TSHEPISOSAT)  
1 39417U 13066B   21347.48788759  .00000394  00000+0  55275-4 0  9996
2 39417  97.6139 322.7520 0057085 295.0093  64.5199 14.81713867435580
CINEMA-3 (KHUSAT-2)     
1 39426U 13066L   21347.38230242  .00000187  00000+0  36595-4 0  9998
2 39426  97.7789 290.6818 0105231 111.5950 249.6508 14.69793644431938
TRITON-1                
1 39427U 13066M   21347.26869382  .00000230  00000+0  43993-4 0  9998
2 39427  97.7961 286.4423 0113832 139.0682 221.9140 14.68413784431454
DELFI-N3XT              
1 39428U 13066N   21347.39431999  .00000437  00000+0  76024-4 0  9992
2 39428  97.7992 285.0681 0119658 151.7720 209.0041 14.68287704431229
GOMX-1                  
1 39430U 13066Q   21347.51394765  .00000311  00000+0  65399-4 0  9992
2 39430  97.8148 260.2979 0148835 271.0129  87.4011 14.59770856429169
BRITE-PL1 (LEM)         
1 39431U 13066R   21347.53206729  .00000101  00000+0  30898-4 0  9990
2 39431  97.7227 212.4924 0203312  84.5684 277.8666 14.47197196425479
ICUBE-1                 
1 39432U 13066S   21347.47707809  .00000332  00000+0  38523-4 0  9998
2 39432  97.4696 356.0419 0032067 162.8559 197.3752 14.91137564436981
HUMSAT-D                
1 39433U 13066T   21347.52319431  .00000914  00000+0  91712-4 0  9990
2 39433  97.4591   3.3932 0031168 140.2314 220.1199 14.93235089437465
VELOX-PII               
1 39438U 13066Y   21347.46721286  .00000375  00000+0  56525-4 0  9997
2 39438  97.6673 313.5982 0069776 343.4724  16.4213 14.78378331433529
FIRST-MOVE              
1 39439U 13066Z   21347.44801608  .00000808  00000+0  10264-3 0  9993
2 39439  97.6176 324.5855 0062945 291.9054  67.5476 14.82983467434473
CUBEBUG-2 (LO-74)       
1 39440U 13066AA  21347.51972052  .00000500  00000+0  75469-4 0  9993
2 39440  97.7016 308.2723 0080104  15.6444 344.7215 14.76420512432843
NEE-02 KRYSAOR          
1 39441U 13066AB  21347.44148409  .00000306  00000+0  50042-4 0  9991
2 39441  97.7120 305.4680 0082035  28.0173 332.5416 14.75310501432600
FUNCUBE-1 (AO-73)       
1 39444U 13066AE  21347.49537925  .00000454  00000+0  61340-4 0  9991
2 39444  97.6033 325.1486 0055972 284.1023  75.3974 14.82661713433960
HINCUBE                 
1 39445U 13066AF  21347.52393181  .00000497  00000+0  66779-4 0  9998
2 39445  97.6048 325.0128 0056049 286.0608  73.4438 14.82486632433919
UWE-3                   
1 39446U 13066AG  21347.45550966  .00000426  00000+0  62476-4 0  9999
2 39446  97.6609 314.9435 0068941 336.9153  22.8965 14.78967698432963
AIST-1 (RS-41)          
1 39492U 13078C   21347.48538934  .00000235  00000+0  22726-4 0  9999
2 39492  82.4207  54.5171 0020126   7.4041 352.7464 14.88134537432129
SPROUT                  
1 39770U 14029E   21347.53754911  .00000914  00000+0  10317-3 0  9992
2 39770  97.9298  98.8595 0008344 346.7578  13.3416 14.88984953409982
UNISAT-6                
1 40012U 14033C   21347.53219811  .00000293  00000+0  50158-4 0  9991
2 40012  97.6622 180.4513 0058875  41.9871 318.5829 14.74461968402581
BUGSAT-1 (TITA)         
1 40014U 14033E   21347.56165946 -.00000228  00000+0 -14391-4 0  9994
2 40014  98.1304 333.6396 0030267 293.8317  65.9730 14.95969240408348
DUCHIFAT-1              
1 40021U 14033M   21347.52599672  .00000937  00000+0  98910-4 0  9999
2 40021  97.9918 289.8068 0011519 298.1369  61.8684 14.91692864406977
NANOSATC-BR1            
1 40024U 14033Q   21347.46842283  .00000483  00000+0  55125-4 0  9991
2 40024  97.9676 284.0260 0010966 305.0944  54.9244 14.90734903406261
QB50P1                  
1 40025U 14033R   21347.37507061  .00000485  00000+0  56632-4 0  9990
2 40025  97.9459 278.6378 0011374 315.1678  44.8619 14.89687266406058
DTUSAT-2                
1 40030U 14033W   21347.56733137  .00000466  00000+0  55249-4 0  9994
2 40030  97.9260 274.8472 0010762 311.0578  48.9708 14.89216167405973
QB50P2                  
1 40032U 14033Y   21347.53534855  .00000474  00000+0  56160-4 0  9991
2 40032  97.9267 274.8249 0010713 312.4123  47.6187 14.89179128405940
POLYITAN-1              
1 40042U 14033AJ  21347.44750701  .00000609  00000+0  69810-4 0  9998
2 40042  97.9557 279.6850 0013454 305.1822  54.8134 14.89545299405953
TIGRISAT                
1 40043U 14033AK  21347.53096665  .00000226  00000+0  40096-4 0  9991
2 40043  97.6579 181.8143 0060552  39.6736 320.8880 14.74652853402228
AISAT                   
1 40054U 14034B   21347.40649614  .00000612  00000+0  91007-4 0  9995
2 40054  98.3403 146.7490 0012652 186.3008 173.8045 14.78722100401976
CANX-4                  
1 40055U 14034C   21347.36289114  .00000149  00000+0  30246-4 0  9999
2 40055  98.3300 133.5788 0013322 226.8909 133.1185 14.75144012401287
CANX-5                  
1 40056U 14034D   21347.36860819  .00000158  00000+0  31479-4 0  9996
2 40056  98.3299 133.5680 0013337 227.1100 132.8989 14.75136918392091
VELOX-I                 
1 40057U 14034E   21347.43018296  .00000527  00000+0  80096-4 0  9998
2 40057  98.3458 147.8788 0010461 199.6015 160.4798 14.78407237401981
METEOR-M 2              
1 40069U 14037A   21347.53469846 -.00000029  00000+0  57101-5 0  9996
2 40069  98.4462   8.6948 0006417 133.8195 226.3516 14.20693014385468
DX1                     
1 40071U 14037C   21347.42638325  .00000175  00000+0  29726-4 0  9999
2 40071  98.4305 201.6436 0008032 185.7334 174.3784 14.81593874401794
UKUBE-1                 
1 40074U 14037F   21347.45250428  .00000367  00000+0  50400-4 0  9995
2 40074  98.4051 213.1850 0004354 154.4139 205.7276 14.84761510402469
FIREBIRD 3              
1 40377U 15003B   21347.48723231  .00003651  00000+0  12926-3 0  9994
2 40377  99.1129 166.7253 0111964 292.4542  66.4863 15.24300878380040
FIREBIRD 4              
1 40378U 15003C   21347.45688243  .00003824  00000+0  13487-3 0  9990
2 40378  99.1135 166.8614 0111972 292.3152  66.6241 15.24365777380046
GRIFEX                  
1 40379U 15003D   21347.41726852  .00001956  00000+0  79784-4 0  9993
2 40379  99.1145 154.5331 0124248 329.4076  29.9947 15.19423440379347
CP10 (EXOCUBE)          
1 40380U 15003E   21347.43557203  .00001463  00000+0  64333-4 0  9996
2 40380  99.1174 148.2232 0130612 350.5825   9.2956 15.16916529378937
DEORBITSAIL             
1 40719U 15032E   21347.53518593  .00000583  00000+0  88453-4 0  9995
2 40719  97.8044 226.8933 0014852 246.6311 113.3338 14.77633151346420
NUDT-PHONESAT           
1 40900U 15049B   21347.51361089  .00004172  00000+0  15315-3 0  9993
2 40900  97.4138   0.6131 0009852 220.1575 292.2722 15.28462311346152
XW-2A                   
1 40903U 15049E   21347.51546816  .00003648  00000+0  73250-4 0  9999
2 40903  97.2124  41.4042 0013483  82.3483  24.8776 15.47232046350461
XW-2C                   
1 40906U 15049H   21347.52131023  .00001186  00000+0  62848-4 0  9999
2 40906  97.4902 347.7467 0012678 288.4512 188.8801 15.17290828344710
XW-2D                   
1 40907U 15049J   21347.54002154  .00001341  00000+0  69838-4 0  9993
2 40907  97.4898 347.6300 0012001 284.4730 193.5064 15.17685758344756
LILACSAT-2              
1 40908U 15049K   21347.52795177  .00000855  00000+0  49598-4 0  9996
2 40908  97.5115 345.1921 0014259 304.5226 172.7025 15.14762798344330
XW-2E                   
1 40909U 15049L   21347.52361240  .00001828  00000+0  86833-4 0  9991
2 40909  97.4676 351.8466 0011128 265.6273 249.3125 15.20455982345133
XW-2F                   
1 40910U 15049M   21347.52000911  .00001807  00000+0  87106-4 0  9999
2 40910  97.4743 350.9394 0012263 265.8684 248.3641 15.19951385344912
XW-2B                   
1 40911U 15049N   21347.55286031  .00001200  00000+0  63044-4 0  9994
2 40911  97.4894 348.2944 0012014 286.1065 191.0892 15.17594299344641
KAITUO 1B               
1 40912U 15049P   21347.54253873  .00002057  00000+0  91410-4 0  9991
2 40912  97.4430 355.3421 0012373 231.3557 289.7581 15.22614093345432
TIANWANG 1A (TW-1A)     
1 40928U 15051D   21347.57034793  .00006946  00000+0  13024-3 0  9997
2 40928  97.0627   8.3495 0008985   8.1026 148.3267 15.48913041349386
LAPAN-A2                
1 40931U 15052B   21347.11771532  .00000949  00000+0  42927-4 0  9993
2 40931   5.9974  58.1361 0013542  48.6215 311.5026 14.76711593335753
LQSAT                   
1 40958U 15057A   21347.44749180  .00000062  00000+0  16999-4 0  9993
2 40958  97.7790  36.7157 0017578 195.8178 164.2483 14.73224825332603
ATHENOXAT 1             
1 41168U 15077C   21347.46559542  .00002888  00000+0  10731-3 0  9997
2 41168  14.9926  23.8906 0010011 153.5751 252.0193 15.16846333331998
GALASSIA                
1 41170U 15077E   21347.42245938  .00002735  00000+0  99309-4 0  9997
2 41170  14.9903  14.6221 0011878 182.3456 177.6811 15.16929652331904
VELOX-II                
1 41171U 15077F   21347.57429330  .00002200  00000+0  82763-4 0  9997
2 41171  14.9917  78.1723 0008434  40.9506 319.1448 15.13282070331396
CHUBUSAT-2              
1 41338U 16012B   21347.46563173  .00000463  00000+0  28897-4 0  9991
2 41338  31.0020 127.4395 0013466 108.0415 252.1688 15.00722183319517
CHUBUSAT-3              
1 41339U 16012C   21347.60489547  .00000407  00000+0  24551-4 0  9991
2 41339  31.0104 123.6083 0013283 116.8360 243.3638 15.00854360319538
HORYU-4                 
1 41340U 16012D   21347.58054747  .00000848  00000+0  56192-4 0  9995
2 41340  31.0045 105.0158 0013562 152.4614 207.6742 15.02213793319742
